[
    {
        "Altitude(m)": 704227.0774049924,
        "Argument of Periapsis(deg)": 0.006834072711976239,
        "Eccentricity": 0.0,
        "Inclination(deg)": 45.0,
        "Latitude(deg)": -4.980661664800431,
        "Longitude(deg)": -50.47946127752082,
        "Mean Anomaly(deg)": -173.0800700115115,
        "RAAN(deg)": 224.99354883512507,
        "Satellite Name": "Constellation 1 1001",
        "Satellite Number": 1001,
        "Semi-Major Axis(m)": 7083131.272910544,
        "Time(s)": 114
    },
    {
        "Altitude(m)": 704235.0087450419,
        "Argument of Periapsis(deg)": 0.006894020718221645,
        "Eccentricity": 0.0,
        "Inclination(deg)": 45.0,
        "Latitude(deg)": -5.023701190875987,
        "Longitude(deg)": -50.440395222446696,
        "Mean Anomaly(deg)": -173.0193688712616,
        "RAAN(deg)": 224.99349224595952,
        "Satellite Name": "Constellation 1 1001",
        "Satellite Number": 1001,
        "Semi-Major Axis(m)": 7083131.272910544,
        "Time(s)": 115
    },
    {
        "Altitude(m)": 704242.959350672,
        "Argument of Periapsis(deg)": 0.006953968724467052,
        "Eccentricity": 0.0,
        "Inclination(deg)": 45.0,
        "Latitude(deg)": -5.066737723553497,
        "Longitude(deg)": -50.40132358738099,
        "Mean Anomaly(deg)": -172.9586677310117,
        "RAAN(deg)": 224.9934356567939,
        "Satellite Name": "Constellation 1 1001",
        "Satellite Number": 1001,
        "Semi-Major Axis(m)": 7083131.272910544,
        "Time(s)": 116
    },
    {
        "Altitude(m)": 704250.9292047066,
        "Argument of Periapsis(deg)": 0.007013916730712457,
        "Eccentricity": 0.0,
        "Inclination(deg)": 45.0,
        "Latitude(deg)": -5.109771237311372,
        "Longitude(deg)": -50.36224632333738,
        "Mean Anomaly(deg)": -172.89796659076185,
        "RAAN(deg)": 224.99337906762835,
        "Satellite Name": "Constellation 1 1001",
        "Satellite Number": 1001,
        "Semi-Major Axis(m)": 7083131.272910544,
        "Time(s)": 117
    },
    {
        "Altitude(m)": 704258.9182898845,
        "Argument of Periapsis(deg)": 0.007073864736957864,
        "Eccentricity": 0.0,
        "Inclination(deg)": 45.0,
        "Latitude(deg)": -5.152801706617769,
        "Longitude(deg)": -50.32316338131752,
        "Mean Anomaly(deg)": -172.83726545051186,
        "RAAN(deg)": 224.9933224784628,
        "Satellite Name": "Constellation 1 1001",
        "Satellite Number": 1001,
        "Semi-Major Axis(m)": 7083131.272910544,
        "Time(s)": 118
    },
    {
        "Altitude(m)": 704266.9265888497,
        "Argument of Periapsis(deg)": 0.0071338127432032696,
        "Eccentricity": 0.0,
        "Inclination(deg)": 45.0,
        "Latitude(deg)": -5.19582910593015,
        "Longitude(deg)": -50.28407488040817,
        "Mean Anomaly(deg)": -172.77656431026202,
        "RAAN(deg)": 224.99326588929722,
        "Satellite Name": "Constellation 1 1001",
        "Satellite Number": 1001,
        "Semi-Major Axis(m)": 7083131.272910544,
        "Time(s)": 119
    },
    {
        "Altitude(m)": 704274.9540841609,
        "Argument of Periapsis(deg)": 0.007193760749448674,
        "Eccentricity": 0.0,
        "Inclination(deg)": 45.0,
        "Latitude(deg)": -5.238853409695134,
        "Longitude(deg)": -50.244980435392264,
        "Mean Anomaly(deg)": -172.71586317001214,
        "RAAN(deg)": 224.99320930013167,
        "Satellite Name": "Constellation 1 1001",
        "Satellite Number": 1001,
        "Semi-Major Axis(m)": 7083131.272910544,
        "Time(s)": 120
    },
    {
        "Altitude(m)": 704283.0007582858,
        "Argument of Periapsis(deg)": 0.007253708755694079,
        "Eccentricity": 0.0,
        "Inclination(deg)": 45.0,
        "Latitude(deg)": -5.28187459234915,
        "Longitude(deg)": -50.20588016533166,
        "Mean Anomaly(deg)": -172.6551620297622,
        "RAAN(deg)": 224.99315271096611,
        "Satellite Name": "Constellation 1 1001",
        "Satellite Number": 1001,
        "Semi-Major Axis(m)": 7083131.272910544,
        "Time(s)": 121
    },
    {
        "Altitude(m)": 704291.0665935994,
        "Argument of Periapsis(deg)": 0.0073136567619394854,
        "Eccentricity": 0.0,
        "Inclination(deg)": 45.0,
        "Latitude(deg)": -5.3248926283174285,
        "Longitude(deg)": -50.166774021178774,
        "Mean Anomaly(deg)": -172.5944608895123,
        "RAAN(deg)": 224.9930961218005,
        "Satellite Name": "Constellation 1 1001",
        "Satellite Number": 1001,
        "Semi-Major Axis(m)": 7083131.272910544,
        "Time(s)": 122
    },
    {
        "Altitude(m)": 704299.1515723914,
        "Argument of Periapsis(deg)": 0.0073736047681848904,
        "Eccentricity": 0.0,
        "Inclination(deg)": 45.0,
        "Latitude(deg)": -5.367907492014562,
        "Longitude(deg)": -50.127661953873165,
        "Mean Anomaly(deg)": -172.53375974926237,
        "RAAN(deg)": 224.99303953263495,
        "Satellite Name": "Constellation 1 1001",
        "Satellite Number": 1001,
        "Semi-Major Axis(m)": 7083131.272910544,
        "Time(s)": 123
    },
    {
        "Altitude(m)": 704307.2556768651,
        "Argument of Periapsis(deg)": 0.007433552774430298,
        "Eccentricity": 0.0,
        "Inclination(deg)": 45.0,
        "Latitude(deg)": -5.410919157843913,
        "Longitude(deg)": -50.08854391434198,
        "Mean Anomaly(deg)": -172.4730586090125,
        "RAAN(deg)": 224.99298294346937,
        "Satellite Name": "Constellation 1 1001",
        "Satellite Number": 1001,
        "Semi-Major Axis(m)": 7083131.272910544,
        "Time(s)": 124
    },
    {
        "Altitude(m)": 704315.378889129,
        "Argument of Periapsis(deg)": 0.007493500780675703,
        "Eccentricity": 0.0,
        "Inclination(deg)": 45.0,
        "Latitude(deg)": -5.453927600197923,
        "Longitude(deg)": -50.04941985349942,
        "Mean Anomaly(deg)": -172.41235746876262,
        "RAAN(deg)": 224.99292635430382,
        "Satellite Name": "Constellation 1 1001",
        "Satellite Number": 1001,
        "Semi-Major Axis(m)": 7083131.272910544,
        "Time(s)": 125
    },
    {
        "Altitude(m)": 704323.5211912008,
        "Argument of Periapsis(deg)": 0.007553448786921108,
        "Eccentricity": 0.0,
        "Inclination(deg)": 45.0,
        "Latitude(deg)": -5.496932793457969,
        "Longitude(deg)": -50.01028989034379,
        "Mean Anomaly(deg)": -172.35165632851272,
        "RAAN(deg)": 224.99286976513827,
        "Satellite Name": "Constellation 1 1001",
        "Satellite Number": 1001,
        "Semi-Major Axis(m)": 7083131.272910544,
        "Time(s)": 126
    },
    {
        "Altitude(m)": 704331.6825650188,
        "Argument of Periapsis(deg)": 0.007613396793166514,
        "Eccentricity": 0.0,
        "Inclination(deg)": 45.0,
        "Latitude(deg)": -5.5399347119936495,
        "Longitude(deg)": -49.971153639569344,
        "Mean Anomaly(deg)": -172.29095518826284,
        "RAAN(deg)": 224.99281317597266,
        "Satellite Name": "Constellation 1 1001",
        "Satellite Number": 1001,
        "Semi-Major Axis(m)": 7083131.272910544,
        "Time(s)": 127
    },
    {
        "Altitude(m)": 704339.8629924207,
        "Argument of Periapsis(deg)": 0.007673344799411918,
        "Eccentricity": 0.0,
        "Inclination(deg)": 45.0,
        "Latitude(deg)": -5.582933330163799,
        "Longitude(deg)": -49.93201122014822,
        "Mean Anomaly(deg)": -172.2302540480129,
        "RAAN(deg)": 224.9927565868071,
        "Satellite Name": "Constellation 1 1001",
        "Satellite Number": 1001,
        "Semi-Major Axis(m)": 7083131.272910544,
        "Time(s)": 128
    },
    {
        "Altitude(m)": 704348.0624551661,
        "Argument of Periapsis(deg)": 0.007733292805657325,
        "Eccentricity": 0.0,
        "Inclination(deg)": 45.0,
        "Latitude(deg)": -5.625928622315423,
        "Longitude(deg)": -49.89286258294253,
        "Mean Anomaly(deg)": -172.169552907763,
        "RAAN(deg)": 224.99269999764155,
        "Satellite Name": "Constellation 1 1001",
        "Satellite Number": 1001,
        "Semi-Major Axis(m)": 7083131.272910544,
        "Time(s)": 129
    },
    {
        "Altitude(m)": 704356.2809349133,
        "Argument of Periapsis(deg)": 0.00779324081190273,
        "Eccentricity": 0.0,
        "Inclination(deg)": 45.0,
        "Latitude(deg)": -5.668920562784149,
        "Longitude(deg)": -49.85370767880085,
        "Mean Anomaly(deg)": -172.10885176751316,
        "RAAN(deg)": 224.99264340847597,
        "Satellite Name": "Constellation 1 1001",
        "Satellite Number": 1001,
        "Semi-Major Axis(m)": 7083131.272910544,
        "Time(s)": 130
    },
    {
        "Altitude(m)": 704364.5184132475,
        "Argument of Periapsis(deg)": 0.007853188818148135,
        "Eccentricity": 0.0,
        "Inclination(deg)": 45.0,
        "Latitude(deg)": -5.7119091258939765,
        "Longitude(deg)": -49.814546458558475,
        "Mean Anomaly(deg)": -172.0481506272632,
        "RAAN(deg)": 224.99258681931042,
        "Satellite Name": "Constellation 1 1001",
        "Satellite Number": 1001,
        "Semi-Major Axis(m)": 7083131.272910544,
        "Time(s)": 131
    },
    {
        "Altitude(m)": 704372.774871644,
        "Argument of Periapsis(deg)": 0.007913136824393542,
        "Eccentricity": 0.0,
        "Inclination(deg)": 45.0,
        "Latitude(deg)": -5.754894285956928,
        "Longitude(deg)": -49.7753788730373,
        "Mean Anomaly(deg)": -171.98744948701332,
        "RAAN(deg)": 224.9925302301448,
        "Satellite Name": "Constellation 1 1001",
        "Satellite Number": 1001,
        "Semi-Major Axis(m)": 7083131.272910544,
        "Time(s)": 132
    }
]